[{"_id":"91b5b7b3-2309-4e8a-8247-cd66d626ef0c","address":"573 Wojhas Square","postalcode":"A7D 5A3","city":"Victoria","province":"BC"},
{"_id":"904568c4-3eb2-488d-90a1-37c40d2d182a","address":"1630 Nozjal Park","postalcode":"A3Z 1F1","city":"Markham","province":"ON"},
{"_id":"91b32548-65b6-4fd9-91a1-2d86b04b8eea","address":"1268 Vukani Parkway","postalcode":"X6J 7Y4","city":"Calgary","province":"AB"},
{"_id":"b6c0b50a-d0e3-43bf-a2a4-8d4674c2a7e8","address":"1594 Otefi Lane","postalcode":"S7T 9A5","city":"St. John","province":"NF"},
{"_id":"7e02bce2-d77c-4fd0-9794-3a53e99c06f5","address":"584 Ducca Court","postalcode":"C8V 1U6","city":"Vancouver","province":"BC"},
{"_id":"64fd714d-e219-4e45-888b-cc2238a8bd0b","address":"178 Vujoz Plaza","postalcode":"S5K 9B0","city":"Calgary","province":"AB"},
{"_id":"4cf71d6d-4a7e-4731-a868-6ad03faf1f22","address":"704 Mefu Square","postalcode":"H0D 9W7","city":"Calgary","province":"AB"},
{"_id":"f72ee55d-8567-4fd7-a735-001e4ec00051","address":"838 Inovaz Highway","postalcode":"M5F 6W1","city":"Ottawa","province":"ON"},
{"_id":"6aec65d9-6981-4daf-adcd-612ee4dfc09d","address":"1760 Gufhat Key","postalcode":"N8Y 2N5","city":"Vancouver","province":"BC"},
{"_id":"dca65c7e-ccf9-4f73-b781-35ba6048dae0","address":"1677 Nuzu Path","postalcode":"T7H 4M5","city":"Toronto","province":"ON"},
{"_id":"f1cd1900-78b7-47f2-92b8-7474adf3bdc6","address":"1894 Todzo Extension","postalcode":"S2N 1O0","city":"Brampton","province":"ON"},
{"_id":"3c2f4bbe-fed9-49d0-98dc-e7aae6b74e10","address":"1547 Admis Extension","postalcode":"J7O 4P4","city":"Markham","province":"ON"},
{"_id":"59516270-19f4-47e8-95ae-3e83fa5f230c","address":"1657 Gorset Manor","postalcode":"J6Q 1Q5","city":"Markham","province":"ON"},
{"_id":"16ff1778-b687-42ef-aace-36cedc05f521","address":"860 Gusat Plaza","postalcode":"J7E 5G5","city":"Vancouver","province":"BC"},
{"_id":"8a430805-00b8-40a6-bd93-c950b544a83b","address":"198 Gafme Center","postalcode":"H6N 1X4","city":"Vancouver","province":"BC"},
{"_id":"d5fc55de-9f7a-4129-9b70-9b24ff53db64","address":"1504 Vecoc Square","postalcode":"R7O 6G5","city":"Calgary","province":"AB"},
{"_id":"27892077-8dea-4cd9-9784-45c6b6f874fb","address":"855 Ziasi Glen","postalcode":"V3R 2Z7","city":"Toronto","province":"ON"},
{"_id":"6d63775d-64eb-4d14-b040-0d750e60f25e","address":"766 Ecput Junction","postalcode":"V5Q 5L3","city":"Calgary","province":"AB"},
{"_id":"01185f9b-b00f-4f2d-9878-0c989fe00fbc","address":"163 Ahzi Path","postalcode":"X6O 6U9","city":"Brampton","province":"ON"},
{"_id":"4bb41877-c11c-46d7-8b11-ecc2e9ed6046","address":"1552 Wivebe Center","postalcode":"M3K 0D8","city":"Montreal","province":"QB"},
{"_id":"ebd7ebbc-c3c9-482c-9402-8df25289de6c","address":"266 Jiiw Center","postalcode":"C8Y 3E3","city":"Markham","province":"ON"},
{"_id":"e973b879-b62b-40f0-a2b0-7f3da7140b3d","address":"787 Hiti Ridge","postalcode":"L0X 8Y7","city":"Markham","province":"ON"},
{"_id":"5da637a5-28d3-453c-a834-da566f6bbd5e","address":"1083 Sibu Highway","postalcode":"H0B 3Y3","city":"Victoria","province":"BC"},
{"_id":"fd1c97dd-bb59-4696-a4a3-d18674015b0e","address":"668 Karus Turnpike","postalcode":"C9Y 9E1","city":"Toronto","province":"ON"},
{"_id":"99d81ee6-e988-445d-9586-578ecab8c6ad","address":"301 Wige Avenue","postalcode":"J4B 9X3","city":"St. John","province":"NF"},
{"_id":"005c1fa7-26a9-49fc-bbca-c124cc642f12","address":"578 Hitpu Grove","postalcode":"P8X 2S7","city":"Toronto","province":"ON"},
{"_id":"a8f07070-cfb0-483e-a07a-b2adf9e3d4b0","address":"417 Ufcu Point","postalcode":"A8V 8L8","city":"Toronto","province":"ON"},
{"_id":"815d8854-009c-4a98-8646-1892b3693b44","address":"1452 Obmul Boulevard","postalcode":"H8Z 2G7","city":"Vancouver","province":"BC"},
{"_id":"78ae718b-da8a-433d-92c0-e0fe7797cd6c","address":"551 Gezwav Trail","postalcode":"E7Z 3N8","city":"Montreal","province":"QB"},
{"_id":"bd6d067b-d5aa-41fa-a889-bd8fba00ae5e","address":"1832 Nudgi Mill","postalcode":"H5Q 8J1","city":"St. John","province":"NF"},
{"_id":"d314b45e-8bdd-480b-a3cd-032183128f50","address":"1565 Lubem Street","postalcode":"H3G 7G7","city":"Markham","province":"ON"},
{"_id":"fc2b6b58-8392-4f3d-b1c8-07f4df87dc24","address":"624 Celju Loop","postalcode":"A0Z 1M4","city":"Victoria","province":"BC"},
{"_id":"533618d2-0031-4b0a-b242-c79909a57ca7","address":"59 Asuta Lane","postalcode":"R2Z 6C0","city":"Markham","province":"ON"},
{"_id":"83b83cc3-1c4b-4cef-ac84-f128437d52d8","address":"316 Bewak Grove","postalcode":"H3K 4R1","city":"Toronto","province":"ON"},
{"_id":"73897cd5-0a0a-42ea-99d5-c406ff4792a8","address":"439 Newa Avenue","postalcode":"V3E 6Y0","city":"Brampton","province":"ON"},
{"_id":"8264af1e-1c55-4ed8-96f9-e3b9e1eff7d5","address":"289 Ufunak Loop","postalcode":"S0P 2S4","city":"St. John","province":"NF"},
{"_id":"85e6d1cc-4bc8-4e95-95b8-f125e7a71eb9","address":"1916 Ikogov Junction","postalcode":"X0T 7B3","city":"Ottawa","province":"ON"},
{"_id":"44cc24b9-1d60-45cf-be0d-a225f35d52ab","address":"408 Habajo Grove","postalcode":"S6F 4B6","city":"Victoria","province":"BC"},
{"_id":"2d6aa779-1b93-48e5-afaa-44b950584f4e","address":"1469 Enawak Square","postalcode":"H6I 9R8","city":"Calgary","province":"AB"},
{"_id":"fb0ec744-5cde-4808-90df-499e65449f15","address":"735 Memiwe Parkway","postalcode":"T7X 8I0","city":"Victoria","province":"BC"},
{"_id":"3f56fdb2-4953-44aa-b52f-ba8a06901699","address":"1119 Irucu Parkway","postalcode":"A7D 2Q3","city":"Brampton","province":"ON"},
{"_id":"927a6f56-da9f-40f5-9603-708f1119a622","address":"891 Wowsi Glen","postalcode":"X5O 2K0","city":"Ottawa","province":"ON"},
{"_id":"5d3eacc4-d1d8-459b-973c-3bc71feacf50","address":"831 Legvo View","postalcode":"S5R 0A7","city":"Victoria","province":"BC"},
{"_id":"de0380cf-72f2-41d9-a87b-474851335f3b","address":"1465 Muel Parkway","postalcode":"M4Z 0R8","city":"Markham","province":"ON"},
{"_id":"148ebea6-5f07-42bb-8853-5ee94087d468","address":"575 Pifoc Terrace","postalcode":"T2N 2Q7","city":"Montreal","province":"QB"},
{"_id":"f841de3b-7554-4148-9b00-de82c2e79f25","address":"1455 Ibobo Key","postalcode":"E8A 1T5","city":"Toronto","province":"ON"},
{"_id":"7e73276a-27c8-4602-bc34-a1f44858ecb9","address":"166 Ruwnen Grove","postalcode":"T5H 9I1","city":"Ottawa","province":"ON"},
{"_id":"8edd063f-c4aa-44b5-9174-34fac4a124a1","address":"541 Neidu Lane","postalcode":"E4G 5Y2","city":"Ottawa","province":"ON"},
{"_id":"7cbdab02-b30f-4925-be6b-5d0963a55db5","address":"488 Zapvot View","postalcode":"C0U 4L6","city":"St. John","province":"NF"},
{"_id":"7a30d204-20e9-4e97-ae06-fe4245cee208","address":"1120 Pizna Parkway","postalcode":"N2Q 1R3","city":"Markham","province":"ON"},
{"_id":"060e6313-a648-4cde-a8b4-7c77aaea2e0d","address":"240 Esunog Center","postalcode":"E1G 2T0","city":"Toronto","province":"ON"},
{"_id":"85a12477-9995-48b7-8b0f-e318634dc2db","address":"692 Bewnet Center","postalcode":"M1E 0J3","city":"Brampton","province":"ON"},
{"_id":"d34f9d8c-c1a0-4653-8a44-d2fe65714956","address":"249 Sotmo Road","postalcode":"G8H 9H7","city":"Toronto","province":"ON"},
{"_id":"4d9c56b0-a903-4c18-9865-701f0e739180","address":"1335 Furof Avenue","postalcode":"S9T 2U7","city":"St. John","province":"NF"},
{"_id":"32464d92-5744-4625-85de-1af31c279a52","address":"287 Lugse Manor","postalcode":"R2U 1M7","city":"Victoria","province":"BC"},
{"_id":"3f10d9f7-57ef-40e1-a97d-d2ee53aa2c6e","address":"521 Sine Junction","postalcode":"M6G 9F8","city":"Victoria","province":"BC"},
{"_id":"f64c4d66-e650-4afd-bd88-f808ad0b5306","address":"553 Opiar Lane","postalcode":"E1M 3R9","city":"Vancouver","province":"BC"},
{"_id":"98fa15f0-5b73-4fb9-a5a4-1332e0f5b58b","address":"332 Hekuce Road","postalcode":"S6R 5J9","city":"Montreal","province":"QB"},
{"_id":"08556871-73f7-41c7-87c1-da69cd3f769f","address":"92 Vojem Point","postalcode":"G1C 4O7","city":"Brampton","province":"ON"},
{"_id":"fdcb19ad-5150-4120-a726-4fbbc83b7622","address":"946 Wodo Place","postalcode":"C9V 7S5","city":"Montreal","province":"QB"},
{"_id":"fd9ba88a-98cf-4603-8774-f25dec584bf2","address":"1781 Gici Square","postalcode":"V7Q 1G5","city":"Brampton","province":"ON"},
{"_id":"0d3a90d5-11bd-4f96-91ba-7e7ef80888f0","address":"1104 Rocet Terrace","postalcode":"N8R 4F0","city":"Calgary","province":"AB"},
{"_id":"5e97658e-5809-41b8-a088-eddbd81f86a7","address":"1882 Tocvet Heights","postalcode":"L8P 5D9","city":"Calgary","province":"AB"},
{"_id":"2059a97b-e168-4268-9086-33c1afbd3bc9","address":"1387 Iliwo Circle","postalcode":"T4H 1R7","city":"Vancouver","province":"BC"},
{"_id":"f4e59d7e-ea40-442d-87be-106e3c46a554","address":"618 Noblis Trail","postalcode":"C5E 7C4","city":"Vancouver","province":"BC"},
{"_id":"456e18ae-c2f8-443e-899d-f2b893499695","address":"467 Cibul Grove","postalcode":"P3H 2D9","city":"Markham","province":"ON"},
{"_id":"77406840-c1df-4bc7-912b-8df902ce4aa4","address":"1103 Awala Path","postalcode":"K0M 5H8","city":"Markham","province":"ON"},
{"_id":"62996de2-fcda-4894-95d5-fef0d11d92f4","address":"1590 Hegvew Extension","postalcode":"B7S 4P8","city":"Brampton","province":"ON"},
{"_id":"2c58890d-0d14-4648-a92f-20f26b02a79b","address":"429 Puliw Key","postalcode":"E2X 4B8","city":"Brampton","province":"ON"},
{"_id":"8d162eb9-eefc-4b7e-bcad-6fb7a02b15b0","address":"541 Baoc Road","postalcode":"C1F 0B7","city":"Calgary","province":"AB"},
{"_id":"c7816d11-69ba-4c8d-b7b8-b71b5ea213b9","address":"518 Pibus Highway","postalcode":"E8K 1G5","city":"St. John","province":"NF"},
{"_id":"7edd78a4-c4e6-484a-bf2f-ecad5c4c506b","address":"1487 Levfe River","postalcode":"B2B 1R8","city":"Toronto","province":"ON"},
{"_id":"592fa227-312d-4a80-8eb2-c4e26493da69","address":"1245 Olmin Loop","postalcode":"N4W 3U4","city":"Vancouver","province":"BC"},
{"_id":"d5b7473d-c82b-4956-bce3-80497ce6c015","address":"1011 Wubov Mill","postalcode":"V2F 5D3","city":"Markham","province":"ON"},
{"_id":"a36736a4-a23a-48e0-ab5b-00084bb2ca5b","address":"1707 Metmer Extension","postalcode":"T5X 3T6","city":"Vancouver","province":"BC"},
{"_id":"066435f1-df1d-44f4-a3a3-80055ffd0f8c","address":"1030 Vavmac Place","postalcode":"C8Q 0G9","city":"Calgary","province":"AB"},
{"_id":"ebebcbd0-711a-458c-8fb5-58a54856dfc0","address":"1715 Ogzim Heights","postalcode":"E7N 4J0","city":"Vancouver","province":"BC"},
{"_id":"2d6b7fb9-fe27-4573-8ef6-56ba4b79e038","address":"1991 Japlop Parkway","postalcode":"P8E 4X1","city":"Ottawa","province":"ON"},
{"_id":"f6f8d2a8-c519-4b20-bf93-970e715ad079","address":"1579 Utva Point","postalcode":"C8P 7V7","city":"Victoria","province":"BC"},
{"_id":"2987cea4-b71d-4338-b0ef-a9b5feb3a138","address":"1698 Zotok Glen","postalcode":"V3V 4U7","city":"Calgary","province":"AB"},
{"_id":"79ad04ba-0967-4a65-986f-cc57ef6c3afd","address":"1863 Soder Trail","postalcode":"C6M 9J1","city":"Brampton","province":"ON"},
{"_id":"68d28d57-8cac-4388-8485-976518a6d817","address":"873 Kiod Trail","postalcode":"B6M 3X7","city":"Vancouver","province":"BC"},
{"_id":"49b64d91-a2f0-48f8-96a4-5bd955e45920","address":"884 Ruvni Key","postalcode":"T7V 6L0","city":"Vancouver","province":"BC"},
{"_id":"4dcebe6e-0787-4158-9744-3d721098cec4","address":"1644 Persuj Square","postalcode":"G5Y 9N7","city":"Markham","province":"ON"},
{"_id":"fc607f68-81c8-4ca8-8a9e-30239ccae40f","address":"1711 Owedu Circle","postalcode":"P5H 5V1","city":"St. John","province":"NF"},
{"_id":"2784aa19-314c-4f5c-9922-5feb83a33735","address":"1360 Ojki Circle","postalcode":"G4B 2V3","city":"Toronto","province":"ON"},
{"_id":"5bbc3eb4-01cf-43c2-85bd-346f786adfee","address":"1010 Cefec Trail","postalcode":"G0F 9K4","city":"Calgary","province":"AB"},
{"_id":"20069928-f7e3-4c7b-b639-b60acf5e3030","address":"733 Rifi Plaza","postalcode":"G0R 7Q9","city":"Calgary","province":"AB"},
{"_id":"19fa3db2-cc90-4681-b0c8-f236402d0b14","address":"425 Nuhan Loop","postalcode":"R2A 9B1","city":"Montreal","province":"QB"},
{"_id":"2d066fc4-8bd8-46cf-a971-68d561090db4","address":"1236 Vicse Ridge","postalcode":"J8T 4F2","city":"St. John","province":"NF"},
{"_id":"5f686f60-b7f4-48a4-8b40-d084580b57ad","address":"541 Upuga Grove","postalcode":"P0C 2O3","city":"Brampton","province":"ON"},
{"_id":"4138f314-d9a4-4cea-9c37-a79e1eb8a4dc","address":"1270 Epru Park","postalcode":"S0L 6V9","city":"Vancouver","province":"BC"},
{"_id":"1fe7fd08-cf2e-414b-8470-2e42eaad612a","address":"77 Tiulo Circle","postalcode":"R7L 7S7","city":"Calgary","province":"AB"},
{"_id":"25c81ad2-9229-4a63-bb6b-a22eb5592eea","address":"1341 Honir Turnpike","postalcode":"P2X 9T5","city":"Toronto","province":"ON"},
{"_id":"824fea9d-d0e6-4c53-ad9d-5bf626a948f3","address":"1639 Ekjo Square","postalcode":"N1W 4Q6","city":"Toronto","province":"ON"},
{"_id":"fe80c95a-a0e9-42c9-aa6a-56f27020842d","address":"120 Esru Center","postalcode":"V0U 2X1","city":"Victoria","province":"BC"},
{"_id":"c923b5b1-3eca-4a26-9974-cfadae5c1ddf","address":"1775 Upli Lane","postalcode":"G9G 3P4","city":"Montreal","province":"QB"},
{"_id":"1cf24906-c700-41bb-a4c8-bba3c3ae30d9","address":"239 Obpe Loop","postalcode":"X3Z 7A8","city":"Ottawa","province":"ON"},
{"_id":"77ce0c50-afd6-47e8-86d7-b1b372e8deb2","address":"1592 Demuc Parkway","postalcode":"L9Q 4N5","city":"Montreal","province":"QB"},
{"_id":"ef5a17a2-6f11-49b8-a0fd-e0bddc56f185","address":"806 Horu Mill","postalcode":"V9B 1G5","city":"Vancouver","province":"BC"},
{"_id":"9949fe3b-99ec-4485-b91d-823925db7d28","address":"872 Corul Center","postalcode":"N1O 5N3","city":"Montreal","province":"QB"},
{"_id":"70bbc861-703c-4501-90a6-c818a6372430","address":"181 Tuwife Path","postalcode":"A4S 3J8","city":"Toronto","province":"ON"},
{"_id":"34886f23-8be7-4f7a-ba53-84fd1ca6e1bf","address":"1063 Tojeke Key","postalcode":"K5F 6P3","city":"St. John","province":"NF"},
{"_id":"ed20462a-f836-476f-8b0c-49bb3abe2235","address":"354 Gowa Point","postalcode":"L3B 5S1","city":"Toronto","province":"ON"},
{"_id":"1ed298fc-20ab-4750-ac38-fed1e60964af","address":"124 Buwad Road","postalcode":"H3X 4F2","city":"St. John","province":"NF"},
{"_id":"45d25888-af94-488a-823f-40fdfc300696","address":"1385 Javjac Loop","postalcode":"A7E 6V3","city":"Markham","province":"ON"},
{"_id":"bc3790a7-b93f-43c0-85d8-73aa5a6b6f11","address":"1792 Irtiv Lane","postalcode":"G1G 8V4","city":"Brampton","province":"ON"},
{"_id":"a31241a6-b3c0-45c6-92ac-6c6513d06fac","address":"1163 Ruhhe Circle","postalcode":"J5L 4Q4","city":"Markham","province":"ON"},
{"_id":"16e84458-c7ef-4fba-9c4b-058ae8a4bc71","address":"1448 Uvgow Highway","postalcode":"T1F 7I6","city":"Vancouver","province":"BC"},
{"_id":"c35b4c7f-b7de-431d-bd60-4026490cd61c","address":"1172 Wuvug Key","postalcode":"P8U 6W0","city":"Victoria","province":"BC"},
{"_id":"0b2528bb-1380-4a38-b1c9-ee7c8a2bae5f","address":"1594 Irufo View","postalcode":"P7C 3T6","city":"Toronto","province":"ON"},
{"_id":"210328b7-727d-4e30-86c2-1db6dac9ef94","address":"807 Nedzo Parkway","postalcode":"K7U 7A0","city":"St. John","province":"NF"},
{"_id":"d02bc965-faed-4c36-9e0f-d9b7faf85cba","address":"509 Talma View","postalcode":"P0P 6R6","city":"Toronto","province":"ON"},
{"_id":"2eeef7c8-1250-4263-aa90-c0bce36509e4","address":"323 Kanaf Terrace","postalcode":"V1Y 2N8","city":"Victoria","province":"BC"},
{"_id":"57ebd0d2-dd0a-416f-b1f6-a711459cd77d","address":"279 Luwfi Avenue","postalcode":"B1T 8T7","city":"Calgary","province":"AB"},
{"_id":"5933afa7-54b7-42ae-95e1-36d108fa08aa","address":"1758 Jimbo Pass","postalcode":"K4V 0K7","city":"St. John","province":"NF"},
{"_id":"25fda2c3-edec-4d84-bf33-73b1da9ddc0c","address":"766 Silsep Key","postalcode":"V5F 9G5","city":"Victoria","province":"BC"},
{"_id":"8b5f25b7-f6d3-4ca4-b9bb-00af2aeaf7df","address":"907 Davo Manor","postalcode":"X0D 6X7","city":"St. John","province":"NF"},
{"_id":"cba20d13-aaef-4e7e-b64d-34a9ace52c13","address":"1290 Gotap Grove","postalcode":"A8G 8W7","city":"Montreal","province":"QB"},
{"_id":"e48e34cf-1342-4e5a-baf7-8415f0c57899","address":"1886 Jifmuj Manor","postalcode":"X4M 2R5","city":"Montreal","province":"QB"},
{"_id":"19b9317d-460b-462e-bd75-0a38a31dbd4d","address":"1375 Loclik Road","postalcode":"R5Y 8Y1","city":"St. John","province":"NF"},
{"_id":"c42e2f2b-a872-40c2-96ed-a3d38ec4a1f3","address":"744 Uzozas Street","postalcode":"C9Z 3M8","city":"Victoria","province":"BC"},
{"_id":"37d0dbd8-87b3-4792-8bb1-295df3c83cbc","address":"1632 Muva Path","postalcode":"V7F 8T9","city":"Markham","province":"ON"},
{"_id":"2efd2969-a44a-420e-ab1e-1cd5685e3223","address":"769 Ruhto Mill","postalcode":"K3R 9K3","city":"Ottawa","province":"ON"},
{"_id":"5f4565f2-48be-4730-92a0-d359780bc191","address":"1901 Vudfen Terrace","postalcode":"J7U 9V3","city":"Montreal","province":"QB"},
{"_id":"1f6aeca3-eb23-45c6-b7f0-969b0ea2a161","address":"809 Gerfud Square","postalcode":"R0N 9H0","city":"Vancouver","province":"BC"},
{"_id":"0b091511-816e-4737-b5e4-9e58f91058ac","address":"378 Itmof Pass","postalcode":"L7Q 8Q9","city":"Calgary","province":"AB"},
{"_id":"6573ac00-88a8-4d66-b1fc-8d0875270f35","address":"1885 Juju Park","postalcode":"J6O 6O8","city":"Montreal","province":"QB"},
{"_id":"fa968d0b-7e2b-4576-883e-63932b8af8e2","address":"1458 Weno Parkway","postalcode":"P8D 5R0","city":"Brampton","province":"ON"},
{"_id":"ce93908c-1b69-45d3-8115-f774b4a7557c","address":"41 Cijoju Highway","postalcode":"L9V 6R5","city":"Calgary","province":"AB"},
{"_id":"1fb45834-76ed-4e07-9f13-2de9a9c61c49","address":"1493 Zajaj Trail","postalcode":"V3B 9S8","city":"Toronto","province":"ON"},
{"_id":"69808596-e0ac-4730-9b4a-6ead195fa5b2","address":"583 Abekib Square","postalcode":"N7M 9P9","city":"Brampton","province":"ON"},
{"_id":"75e5ca39-f0fe-4291-b853-c5c8f5c4a37d","address":"1433 Peci Trail","postalcode":"T0W 5Q0","city":"Vancouver","province":"BC"},
{"_id":"d3dc0f41-2f3c-433c-b762-a75f4b66950d","address":"1495 Ugives Grove","postalcode":"K5A 8J7","city":"St. John","province":"NF"},
{"_id":"f44a1257-f2a1-41e9-a87c-f13440a2b958","address":"687 Etikog Parkway","postalcode":"N1Q 8O5","city":"St. John","province":"NF"},
{"_id":"b60792d9-b684-4a39-8bb6-29d94741577f","address":"190 Iwaza Highway","postalcode":"H4I 0B4","city":"Calgary","province":"AB"},
{"_id":"332f67c1-ec2c-42fb-923f-c07f347e77a0","address":"1471 Uwevi Mill","postalcode":"S8B 1O3","city":"Markham","province":"ON"},
{"_id":"686b1dc0-c562-4439-be00-a075f892d6d4","address":"378 Nosut Pike","postalcode":"K7J 5Q6","city":"Toronto","province":"ON"},
{"_id":"4cbbac8f-fcf3-4186-9ff6-72b35fa2bf5c","address":"566 Adhe Glen","postalcode":"X9M 5Q4","city":"Montreal","province":"QB"},
{"_id":"319cface-9f09-47a7-bd76-95ca7757514c","address":"1875 Hovow Pike","postalcode":"H7Q 8P9","city":"Markham","province":"ON"},
{"_id":"c99622a3-7ef4-4876-ac4b-f5b043af4a74","address":"13 Amgi Ridge","postalcode":"E0R 6X5","city":"Vancouver","province":"BC"},
{"_id":"7f24c8f9-5761-40a5-ba0b-ab712b7f166b","address":"700 Bobi Way","postalcode":"N8D 9E4","city":"Toronto","province":"ON"},
{"_id":"e64853b8-cd55-4734-94a9-311d481b84c0","address":"1930 Emuun Loop","postalcode":"G2U 7P3","city":"Calgary","province":"AB"},
{"_id":"f555c521-1069-49e7-b9db-b670754d9c25","address":"1166 Guzpof Avenue","postalcode":"R2R 1L5","city":"Ottawa","province":"ON"},
{"_id":"fedbf3eb-d7b9-45eb-b358-40d60d68d484","address":"1409 Ijagi Turnpike","postalcode":"M1A 4T9","city":"Markham","province":"ON"},
{"_id":"204813fd-43af-44b0-818e-98e6d0ac5ddc","address":"224 Woid Square","postalcode":"X1M 8K5","city":"Toronto","province":"ON"},
{"_id":"ec626307-e708-465d-9889-0c5a42f2c4db","address":"1812 Ekzut Extension","postalcode":"R3H 3D4","city":"Calgary","province":"AB"},
{"_id":"c1cf514e-1650-4401-8222-7b12c62c8820","address":"71 Dehaz Court","postalcode":"N2S 0C2","city":"Vancouver","province":"BC"},
{"_id":"f633a621-fae6-4333-9a8d-491d1137dc9e","address":"207 Vavvek Pike","postalcode":"E0N 9F6","city":"Toronto","province":"ON"},
{"_id":"0c82f9a6-0d23-4296-b9bb-9db5e9c38cc1","address":"1355 Tadez Road","postalcode":"G2K 1X9","city":"Vancouver","province":"BC"},
{"_id":"6ae973e9-77c6-4735-8a93-5f7c8cf17ca7","address":"992 Jerpi Avenue","postalcode":"K6G 1B6","city":"Victoria","province":"BC"},
{"_id":"a41a06ec-34cc-4992-90f1-1420b1076ecb","address":"962 Lapnov Avenue","postalcode":"A4L 3D3","city":"Brampton","province":"ON"},
{"_id":"341b8500-0c37-4109-9dd4-b0627252d42f","address":"614 Goula Key","postalcode":"H8T 8F3","city":"Calgary","province":"AB"},
{"_id":"3e7f4fa8-5e16-4eba-a12b-2415ebbf4eaa","address":"727 Fugese Street","postalcode":"L6M 4O4","city":"Victoria","province":"BC"},
{"_id":"c2ef8819-4444-4e78-9ad7-2c359338eeb2","address":"1603 Pumor Point","postalcode":"E1Q 5S5","city":"Toronto","province":"ON"},
{"_id":"5fd4089a-ba1f-482d-b5e3-6b05cd4bab02","address":"84 Hepi Manor","postalcode":"E1O 5L5","city":"Markham","province":"ON"},
{"_id":"19728362-40ea-4f68-a072-0c44a912be12","address":"671 Kowsi Park","postalcode":"V6N 9K3","city":"Montreal","province":"QB"},
{"_id":"be2aed2f-09ab-4b58-89ed-71f2155a20d6","address":"711 Masule Junction","postalcode":"V8L 8W1","city":"Brampton","province":"ON"},
{"_id":"ee89a38b-24be-48d9-a072-8e80842ca08b","address":"31 Enboc Ridge","postalcode":"A0L 9W7","city":"Victoria","province":"BC"},
{"_id":"ab098e57-8d9c-4632-8c7c-106911ff77ca","address":"931 Cetot Turnpike","postalcode":"S5A 7P2","city":"Ottawa","province":"ON"}]
